[{"OBJECT_NAME":"MICROCARB","OBJECT_ID":"2025-156A","EPOCH":"2026-03-09T17:15:52.249536","MEAN_MOTION":14.72202721,"ECCENTRICITY":0.00154873,"INCLINATION":97.9887,"RA_OF_ASC_NODE":147.6209,"ARG_OF_PERICENTER":226.9803,"MEAN_ANOMALY":133.0108,"EPHEMERIS_TYPE":0,"CLASSIFICATION_TYPE":"U","NORAD_CAT_ID":64899,"ELEMENT_SET_NO":999,"REV_AT_EPOCH":3333,"BSTAR":0.00014465624,"MEAN_MOTION_DOT":8.64e-6,"MEAN_MOTION_DDOT":0},{"OBJECT_NAME":"CZ-6A DEB","OBJECT_ID":"2022-151PJ","EPOCH":"2026-03-09T17:44:17.436480","MEAN_MOTION":14.77867451,"ECCENTRICITY":0.00581726,"INCLINATION":98.6459,"RA_OF_ASC_NODE":132.2881,"ARG_OF_PERICENTER":233.4685,"MEAN_ANOMALY":126.1159,"EPHEMERIS_TYPE":0,"CLASSIFICATION_TYPE":"U","NORAD_CAT_ID":54632,"ELEMENT_SET_NO":999,"REV_AT_EPOCH":17467,"BSTAR":0.002965967,"MEAN_MOTION_DOT":0.00021944,"MEAN_MOTION_DDOT":0}]
